{"3065546":{"longitude":19.82220192781649,"latitude":45.25910257082995,"idLocation":3065546,"city":"Novi Sad City","street":"Brace Popovic","houseNumber":"","postcode":"21137"},"47980120":{"longitude":20.478964927157634,"latitude":44.79182845297461,"idLocation":47980120,"city":"Belgrade","street":"Maksima Gorkog","houseNumber":"93","postcode":"11000"},"258194183":{"longitude":19.844458898222072,"latitude":45.238440185429994,"idLocation":258194183,"city":"Novi Sad City","street":"Bulevar oslobodjenja","postcode":"210000"},"37205809":{"longitude":19.840567903518675,"latitude":45.249197197912025,"idLocation":37205809,"city":"Novi Sad City","street":"Zeleznicka","houseNumber":"38","postcode":"21101"},"36834936":{"longitude":19.851783115225846,"latitude":45.252178176279614,"idLocation":36834936,"city":"Novi Sad City","street":"Jovana Boskovica","houseNumber":"13","postcode":"21101"},"37373649":{"longitude":19.846289951163346,"latitude":45.26313396018486,"idLocation":37373649,"city":"Novi Sad City","street":"Almaska","houseNumber":"13","postcode":"21101"},"38104939":{"longitude":19.820027546882624,"latitude":45.263371834150206,"idLocation":38104939,"city":"Novi Sad City","street":"Stjepana Mitrova Ljubise","houseNumber":"3","postcode":"21101"},"36299975":{"longitude":19.837322430610655,"latitude":45.24976998943529,"idLocation":36299975,"city":"Novi Sad City","street":"Danila Kisa","houseNumber":"4","postcode":"21102"},"37745935":{"longitude":19.8390247427579,"latitude":45.25853868301118,"idLocation":37745935,"city":"Novi Sad City","street":"Vojvode Bojovica","houseNumber":"21","postcode":"21101"},"134609845":{"longitude":19.852698644315826,"latitude":45.259911893483405,"idLocation":134609845,"city":"Novi Sad City","street":"Episkopa Visariona","postcode":"21101"},"37792401":{"longitude":19.814360933740392,"latitude":45.244725427782186,"idLocation":37792401,"city":"Novi Sad City","street":"Suboticka","houseNumber":"33a","postcode":"21000"},"37415755":{"longitude":19.84372823050669,"latitude":45.264693582660016,"idLocation":37415755,"city":"Novi Sad City","street":"Temerinska","houseNumber":"39","postcode":"21101"},"125650536":{"longitude":19.810584383447424,"latitude":45.255038164277636,"idLocation":125650536,"city":"Novi Sad City","street":"Radomira Rase Radujkova","postcode":"21140"},"325330045":{"longitude":19.82569058592897,"latitude":45.26889295680763,"idLocation":325330045,"city":"Novi Sad City","street":"Partizanska","postcode":"21000"},"76776783":{"longitude":19.83400364486268,"latitude":45.266324387933906,"idLocation":76776783,"city":"Novi Sad City","street":"Kisacka","houseNumber":"63","postcode":"21101"},"37278982":{"longitude":19.843849865657955,"latitude":45.26565780198652,"idLocation":37278982,"city":"Novi Sad City","street":"Temerinska","houseNumber":"42","postcode":"21101"}}